#dP2023  4 13  6  0  0.00000000      96 __u+U ITR00 EXT  IAC
## 2257 367200.00000000   900.00000000 60047 0.2500000000000
+  120   C06C07C08C09C10C11C12C13C14C16C19C20C21C22C23C24C25
+        C26C27C28C29C30C32C33C34C35C36C37C38C39C40C41C42C43
+        C44C45C46E01E02E03E04E05E07E08E09E10E11E12E13E14E15
+        E18E19E21E24E25E26E27E30E31E33E34E36G01G02G03G04G05
+        G06G07G08G09G10G11G12G13G14G15G16G17G18G19G20G21G22
+        G23G24G25G26G27G28G29G30G31G32J02J03J04R01R02R03R04
+        R05R07R08R09R11R12R13R14R15R16R17R18R19R20R21R22R24
+        R25  0  0  0  0  0  0  0  0  0  0  0  0  0  0  0  0
++         0  0  0  0  0  0  0  0  0  0  0  0  0  0  0  0  0
++         0  0  0  0  0  0  0  0  0  0  0  0  0  0  0  0  0
++         0  0  0  0  0  0  0  0  0  0  0  0  0  0  0  0  0
++         0  0  0  0  0  0  0  0  0  0  0  0  0  0  0  0  0
++         0  0  0  0  0  0  0  0  0  0  0  0  0  0  0  0  0
++         0  0  0  0  0  0  0  0  0  0  0  0  0  0  0  0  0
++         0  0  0  0  0  0  0  0  0  0  0  0  0  0  0  0  0
++         0  0  0  0  0  0  0  0  0  0  0  0  0  0  0  0  0
%c M  cc GPS ccc cccc cccc cccc cccc ccccc ccccc ccccc ccccc
%c cc cc ccc ccc cccc cccc cccc cccc ccccc ccccc ccccc ccccc
%f  0.0000000  0.000000000  0.00000000000  0.000000000000000
%f  0.0000000  0.000000000  0.00000000000  0.000000000000000
%i    0    0    0    0      0      0      0      0         0
%i    0    0    0    0      0      0      0      0         0
/* IAC                                ULTRA-RAPID PREDICTION
/* S/V CLOCKS ARE ALIGNED TO GNSS TIME                      
/* G:C1WC2W R:C1PC2P E:C1XC5X C:C2IC6I J:C1CC2S             
/* PCV:IGS20_2247 OL/AL:FES2004  NONE     YN ORB:CoN CLK:CoN
*  2023 04 13 16 45  0.00000000
PC06  -5043.725699  38984.147132  15647.491360   -197.132424
PC07 -10384.191891  25447.356812 -31947.714799    133.685503
PC08 -19899.084438  31838.883478  19009.498959    505.460377
PC09     -7.634724  41956.310961   6950.527751    771.258080
PC10  -1385.231368  27278.070792 -31789.733010    -32.394922
PC11 -14557.148574   4840.811929 -23249.398397    298.477751
PC12 -16900.668048 -15045.669880 -16300.462259    569.418637
PC13 -12947.754540  32170.000026  23963.723217    251.984779
PC14 -25187.110186   4025.697884  11416.380346    118.676212
PC16  -6796.607860  37463.930354  18658.068107    110.398147
PC19  18440.132754  -9854.604076 -18438.035227   -900.946919
PC20  27533.464792   1407.564425  -4183.017515    627.527645
PC21 -20696.699243 -12736.147657 -13721.191529   -909.936859
PC22  -1777.427030 -16019.561924 -22777.803439   -537.622493
PC23  -7291.512152  23684.516856 -12827.769848   -905.132604
PC24 -20233.311964   3339.403890  18901.737785   -175.699390
PC25 -18758.487651  20365.800599   3382.468664    106.014465
PC26 -10261.051665 -13058.803162  22413.012731   -105.766885
PC27  14911.178352  21704.670116   9238.367877    125.097002
PC28   4525.847446  26576.527178  -7212.931851     92.109610
PC29   9316.296614 -15787.960510  21029.110664    106.668115
PC30  17804.904169   4709.494979  20961.998358      0.424443
PC32  20687.258302  12638.653212  13829.307631   -579.721857
PC33 -18492.655570   9957.684212  18396.233238   -873.458722
PC34 -17586.864319  -3223.699776 -21434.193231    148.164934
PC35  -4800.142894 -26268.875777   8015.888293    646.729543
PC36  19516.311959 -19530.579900  -4055.570216   -503.255316
PC37   8957.942074  14306.690614 -22209.942654   -790.345034
PC38 -24657.819549  32444.489306  10592.450506     71.534996
PC39  -8577.141505  34038.054421  23570.840134     -2.531606
PC40 -14361.083753  19019.421441 -34822.709183    -20.247353
PC41   1012.083872  16016.598744  22887.401925   -846.089275
PC42 -27682.912343  -2178.404902   2970.654392   -738.802443
PC43  -9983.804808  15080.208159 -21271.912489     16.530704
PC44 -15704.492636 -21188.539126  -9080.908021     74.842461
PC45   6996.152314 -23562.239223  13231.267515    -84.606563
PC46  20683.377946  -5025.720833 -18070.624352    -46.738470
PE01  -1172.981072  17633.966382 -23748.526506     -1.709048
PE02    665.702498 -17524.043418  23840.536872     32.137189
PE03 -10168.272038 -23044.659494 -15552.487902   -668.857543
PE04  23253.396586  18230.546811  -1741.284850    -99.807309
PE05   9258.944201 -14403.344550 -24135.585529    -77.118625
PE07 -23070.995932  -2715.279400  18362.474934    -37.329777
PE08 -23206.765941 -18320.899523   1537.402670    -66.804185
PE09  23061.568526   2920.908163 -18307.988553   -903.595088
PE10  15275.567320   5166.195904  24813.035383   -526.222603
PE11  16681.386436  -7189.857035  23353.582030   1593.958011
PE12  11729.434752  15672.842254  22205.667460   -497.298603
PE13 -16608.418680   6331.133638 -23671.912642    -18.510418
PE14 -20017.058594 -23007.060671   1510.301473    196.133495
PE15 -11540.254575 -15945.242343 -22099.949620    -14.337024
PE18   9243.691188  22368.317278  -9890.566872   -169.750822
PE19   7655.475650  22611.467535  17515.891409  -2774.339693
PE21 -19679.334079  17099.887781 -14019.542109   -523.173451
PE24  28510.050402  -6095.206396  -5210.700925    -42.291127
PE25  19963.588225 -16998.349434  13742.543315   -603.209735
PE26 -11631.161845  25070.735591 -10608.580078     74.192802
PE27 -28465.337718   6756.635739   4458.855454    -24.231785
PE30 -19899.801856  -7962.885814  20394.021861    -90.070545
PE31  20401.093884   7451.106213 -20111.684013   -521.201369
PE33   -306.536798  28644.405557   7490.740506   -446.432332
PE34    142.299085 -28596.202926  -7649.368904    -40.034258
PE36  11890.250801 -24597.968465  11370.110932    -40.831280
PG01  13560.911331 -18160.835423  13217.935062    193.631650
PG02  -6676.394516  25490.001846  -4024.871586   -606.370964
PG03  21121.242386 -12996.157465  -9469.421935   -329.976801
PG04  11055.300565 -10399.898313 -21784.906600     15.976758
PG05 -25498.539296   4066.356788  -6656.527678   -123.265353
PG06  -6751.005799 -19213.572435 -16932.142572    586.686407
PG07   6108.709571 -25567.125070     -8.414440    202.163243
PG08  19655.337900    661.032156  17963.548333   -117.572988
PG09    420.393235 -18130.894804 -19459.797087   -180.776835
PG10   7535.578830  13194.628124  21987.503544    -32.669749
PG11 -14155.750407  -5383.472380 -21812.368818   -161.327163
PG12 -23175.732269  10607.690099  -7580.473409   -363.480400
PG13 -20234.851439  -9397.776086  14388.569625    505.210257
PG14  -4004.247496 -14944.492950  21596.355575     24.041631
PG15 -19538.337052   2121.217645  17531.568542     30.300554
PG16  25279.406756   1200.126560  -9091.946796   -509.083704
PG17 -11199.599662 -21983.525339  10125.302708    710.400684
PG18  -4372.531812  25918.190322   3212.525836   -222.576541
PG19 -17327.862566 -20334.529295    119.251101    303.169135
PG20 -21567.269472  -1562.423001 -15256.241703    439.254924
PG21  15337.393545  -9450.358367  19785.461059    154.231274
PG22  18742.518253  18789.299410  -1968.216867    463.463833
PG23  -5974.420673  16351.883533  20019.798919     16.609953
PG24 -14298.705747  14717.828168  16279.957284   -150.334306
PG25 -14321.752426  16125.196328 -15637.411182    435.320710
PG26  17637.939538   7951.274483 -18453.033695    241.757754
PG27  22043.778146  11214.416443   9979.671005     59.742595
PG28   6779.580431  20637.059435 -15314.513831     64.265153
PG29  -5269.072454  15335.036160 -21069.758047   -595.356477
PG30  -2262.946572 -24073.394684  10785.603337   -522.542261
PG31  10995.859269  13761.852086 -19925.075060   -213.882166
PG32  14782.970565  20918.192618   7584.829552   -450.513027
PJ02 -35011.474305  18898.496619  -9295.060998     -1.510151
PJ03 -20503.112876  27902.714726 -19462.371630      2.254659
PJ04 -28579.866821  27376.498602  20648.371170     94.189333
PR01  -5047.206942 -12521.684439 -21637.835912     26.599408
PR02 -20700.807057 -11904.059435  -8831.032969    -22.959313
PR03 -23659.679165  -4021.742432   8615.615829     75.951704
PR04 -13448.240897   5549.337448  20985.008419    183.169995
PR05   4000.748096  12346.623680  21981.282924    110.902726
PR07  23503.441340   3697.560232  -9214.436904     53.739067
PR08  13327.157359  -5761.454172 -20915.379497    -70.327053
PR09   9375.625874   6697.001135 -22737.591255    114.514278
PR11  18900.961140 -17105.831839    643.009637    -35.374984
PR12   6752.628133 -17099.289461  17711.879884     26.417983
PR13  -7665.391715  -7943.648963  22977.621248    -33.939832
PR14 -19422.226175   7539.656302  14737.914986     24.539028
PR15 -18654.621378  17304.405169  -1813.474790     89.824053
PR16  -7014.444672  17188.865495 -17503.729430     13.466418
PR17 -10982.392935  -2161.572669 -22919.689678    620.884193
PR18  -6271.467707  15245.298862 -19477.054402     76.347992
PR19    188.829481  24440.671070  -7312.176193   -228.922985
PR20   8692.416989  20104.706360  13119.557196    -91.050968
PR21  10653.650832    340.055731  23169.132838      0.279638
PR22   6819.671082 -15785.053531  18856.867439     79.174297
PR24  -9787.121854 -19292.972641 -13508.589677    161.648417
PR25  11189.113298   2813.626179  22750.607519     61.360916
EOF
